NORAD_CAT_ID,OBJECT_NAME,OBJECT_TYPE,EPOCH,MEAN_MOTION,ECCENTRICITY,INCLINATION,RA_OF_ASC_NODE,ARG_OF_PERICENTER,MEAN_ANOMALY,BSTAR,MEAN_MOTION_DOT,MEAN_MOTION_DDOT,TLE_LINE0,TLE_LINE1,TLE_LINE2,SEMIMAJOR_AXIS,PERIOD,APOGEE,PERIGEE,DECAYED
53996.0,STARLINK-5131,PAYLOAD,2023-08-25 17:14:33,15.08841074,0.0001179,53.2175,55.2925,92.1653,267.9474,6.456e-05,7.4e-06,0.0,0 STARLINK-5131,1 53996U 22125AJ  23237.71844567  .00000740  00000-0  64560-4 0  9999,2 53996  53.2175  55.2925 0001179  92.1653 267.9474 15.08841074 49593,6917.877,95.437,540.558,538.926,0.0
53996.0,STARLINK-5131,PAYLOAD,2023-08-26 21:51:29,15.08845232,0.0001169,53.2177,49.9393,94.0118,266.1008,0.00012532,1.707e-05,0.0,0 STARLINK-5131,1 53996U 22125AJ  23238.91076350  .00001707  00000-0  12532-3 0  9994,2 53996  53.2177  49.9393 0001169  94.0118 266.1008 15.08845232 49707,6917.864,95.437,540.538,538.921,0.0
53996.0,STARLINK-5131,PAYLOAD,2023-08-27 16:56:09,15.08827279,0.000124,53.2182,46.3727,68.4915,291.621,-2.948e-05,-7.57e-06,0.0,0 STARLINK-5131,1 53996U 22125AJ  23239.70566328 -.00000757  00000-0 -29480-4 0  9998,2 53996  53.2182  46.3727 0001240  68.4915 291.6210 15.08827279 49894,6917.919,95.438,540.642,538.926,0.0
53996.0,STARLINK-5131,PAYLOAD,2023-08-27 18:31:32,15.08824914,0.0001217,53.2182,46.0753,71.8267,288.2857,-3.2431e-05,-8.04e-06,0.0,0 STARLINK-5131,1 53996U 22125AJ  23239.77190514 -.00000804  00000-0 -32431-4 0  9998,2 53996  53.2182  46.0753 0001217  71.8267 288.2857 15.08824914 49838,6917.927,95.439,540.633,538.95,0.0
53996.0,STARLINK-5131,PAYLOAD,2023-08-28 16:46:55,15.08843795,0.000111,53.2179,41.9127,81.8394,278.2724,9.1945e-05,1.176e-05,0.0,0 STARLINK-5131,1 53996U 22125AJ  23240.69925510  .00001176  00000-0  91945-4 0  9999,2 53996  53.2179  41.9127 0001110  81.8394 278.2724 15.08843795 50042,6917.869,95.437,540.502,538.966,0.0
53996.0,STARLINK-5131,PAYLOAD,2023-08-28 19:57:41,15.08844606,0.0001176,53.2174,41.317,78.016,282.0964,0.00017496,2.498e-05,0.0,0 STARLINK-5131,1 53996U 22125AJ  23240.83173452  .00002498  00000-0  17496-3 0  9991,2 53996  53.2174  41.3170 0001176  78.0160 282.0964 15.08844606 49993,6917.866,95.437,540.545,538.918,0.0
53996.0,STARLINK-5131,PAYLOAD,2023-08-29 18:13:05,15.0885628,0.0001119,53.2166,37.1545,75.9479,284.1638,0.00053431,8.23e-05,0.0,0 STARLINK-5131,1 53996U 22125AJ  23241.75909244  .00008230  00000-0  53431-3 0  9998,2 53996  53.2166  37.1545 0001119  75.9479 284.1638 15.08856280 50139,6917.831,95.437,540.47,538.922,0.0
53996.0,STARLINK-5131,PAYLOAD,2023-08-30 16:28:29,15.08852598,9.67e-05,53.217,32.9902,99.4887,260.6214,0.00016036,2.266e-05,0.0,0 STARLINK-5131,1 53996U 22125AJ  23242.68644735  .00002266  00000-0  16036-3 0  9995,2 53996  53.2170  32.9902 0000967  99.4887 260.6214 15.08852598 50348,6917.842,95.437,540.376,539.038,0.0
53996.0,STARLINK-5131,PAYLOAD,2023-08-31 03:36:11,15.08848231,0.0001115,53.218,30.9102,76.5339,283.5778,9.6724e-05,1.252e-05,0.0,0 STARLINK-5131,1 53996U 22125AJ  23243.15012839  .00001252  00000-0  96724-4 0  9999,2 53996  53.2180  30.9102 0001115  76.5339 283.5778 15.08848231 50419,6917.855,95.437,540.492,538.949,0.0
53996.0,STARLINK-5131,PAYLOAD,2023-08-31 19:30:02,15.08848815,7.57e-05,53.2181,27.9361,90.6065,269.5014,0.00013213,1.816e-05,0.0,0 STARLINK-5131,1 53996U 22125AJ  23243.81252702  .00001816  00000-0  13213-3 0  9994,2 53996  53.2181  27.9361 0000757  90.6065 269.5014 15.08848815 50445,6917.853,95.437,540.242,539.195,0.0
53996.0,STARLINK-5131,PAYLOAD,2023-09-01 12:59:16,15.08881048,5.64e-05,53.217,24.6694,61.7762,298.3287,0.0015167,0.0002396,0.0,0 STARLINK-5131,1 53996U 22125AJ  23244.54116207  .00023960  00000-0  15167-2 0  9997,2 53996  53.2170  24.6694 0000564  61.7762 298.3287 15.08881048 50554,6917.755,95.435,540.01,539.23,0.0
53996.0,STARLINK-5131,PAYLOAD,2023-09-01 16:10:03,15.08850677,0.0001351,53.2175,24.0736,80.5141,279.6004,0.00034904,5.273e-05,0.0,0 STARLINK-5131,1 53996U 22125AJ  23244.67365059  .00005273  00000-0  34904-3 0  9990,2 53996  53.2175  24.0736 0001351  80.5141 279.6004 15.08850677 50648,6917.848,95.437,540.647,538.778,0.0
53996.0,STARLINK-5131,PAYLOAD,2023-09-01 19:20:49,15.08853403,0.0001198,53.2177,23.4762,81.9341,278.1787,0.00035812,5.418e-05,0.0,0 STARLINK-5131,1 53996U 22125AJ  23244.80612855  .00005418  00000-0  35812-3 0  9994,2 53996  53.2177  23.4762 0001198  81.9341 278.1787 15.08853403 50594,6917.839,95.437,540.533,538.876,0.0
53996.0,STARLINK-5131,PAYLOAD,2023-09-02 04:53:08,15.08837932,0.0001197,53.2173,21.6889,99.058,261.0547,0.00010515,1.386e-05,0.0,0 STARLINK-5131,1 53996U 22125AJ  23245.20357380  .00001386  00000-0  10515-3 0  9991,2 53996  53.2173  21.6889 0001197  99.0580 261.0547 15.08837932 50723,6917.887,95.438,540.58,538.924,0.0
53996.0,STARLINK-5131,PAYLOAD,2023-09-02 12:50:04,15.08844591,0.0001271,53.2176,20.2037,95.5703,264.5434,0.00019969,2.892e-05,0.0,0 STARLINK-5131,1 53996U 22125AJ  23245.53477150  .00002892  00000-0  19969-3 0  9990,2 53996  53.2176  20.2037 0001271  95.5703 264.5434 15.08844591 50707,6917.866,95.437,540.611,538.852,0.0
53996.0,STARLINK-5131,PAYLOAD,2023-09-02 16:00:50,15.0885135,0.0001203,53.2175,19.6099,86.2034,273.9096,0.00034978,5.285e-05,0.0,0 STARLINK-5131,1 53996U 22125AJ  23245.66724948  .00005285  00000-0  34978-3 0  9990,2 53996  53.2175  19.6099 0001203  86.2034 273.9096 15.08851350 50793,6917.846,95.437,540.543,538.878,0.0
53996.0,STARLINK-5131,PAYLOAD,2023-09-02 19:11:36,15.08862626,0.0001204,53.2175,19.0148,87.1803,272.9326,0.00078138,0.00012177,0.0,0 STARLINK-5131,1 53996U 22125AJ  23245.79972730  .00012177  00000-0  78138-3 0  9992,2 53996  53.2175  19.0148 0001204  87.1803 272.9326 15.08862626 50745,6917.811,95.436,540.509,538.843,0.0
53996.0,STARLINK-5131,PAYLOAD,2023-09-03 09:30:04,15.08850721,0.0002054,53.2187,16.3406,84.9484,275.1743,0.00055706,8.591e-05,0.0,0 STARLINK-5131,1 53996U 22125AJ  23246.39589063  .00008591  00000-0  55706-3 0  9993,2 53996  53.2187  16.3406 0002054  84.9484 275.1743 15.08850721 50908,6917.848,95.437,541.134,538.292,0.0
53996.0,STARLINK-5131,PAYLOAD,2023-09-03 11:05:28,15.08846871,0.0001833,53.2182,16.0439,85.7945,274.3257,0.00023805,3.503e-05,0.0,0 STARLINK-5131,1 53996U 22125AJ  23246.46213019  .00003503  00000-0  23805-3 0  9999,2 53996  53.2182  16.0439 0001833  85.7945 274.3257 15.08846871 50846,6917.859,95.437,540.992,538.456,0.0
53996.0,STARLINK-5131,PAYLOAD,2023-09-04 01:23:56,15.08833996,0.0001692,53.2198,13.3667,91.9156,268.203,-8.6207e-05,-1.66e-05,0.0,0 STARLINK-5131,1 53996U 22125AJ  23247.05829427 -.00001660  00000-0 -86207-4 0  9991,2 53996  53.2198  13.3667 0001692  91.9156 268.2030 15.08833996 51006,6917.899,95.438,540.934,538.593,0.0
53996.0,STARLINK-5131,PAYLOAD,2023-09-04 10:56:15,15.08827836,0.0001374,53.2178,11.5828,90.8819,269.2331,-0.00016687,-2.942e-05,0.0,0 STARLINK-5131,1 53996U 22125AJ  23247.45573780 -.00002942  00000-0 -16687-3 0  9991,2 53996  53.2178  11.5828 0001374  90.8819 269.2331 15.08827836 50992,6917.918,95.438,540.733,538.832,0.0
53996.0,STARLINK-5131,PAYLOAD,2023-09-05 01:14:43,15.08839138,0.0001326,53.2184,8.9052,91.1609,268.9535,1.9358e-05,2e-07,0.0,0 STARLINK-5131,1 53996U 22125AJ  23248.05189586  .00000020  00000-0  19358-4 0  9997,2 53996  53.2184   8.9052 0001326  91.1609 268.9535 15.08839138 51087,6917.883,95.438,540.665,538.831,0.0
53996.0,STARLINK-5131,PAYLOAD,2023-09-06 07:27:03,15.08842143,0.0001231,53.2186,3.2558,95.1506,264.9627,0.00026792,3.979e-05,0.0,0 STARLINK-5131,1 53996U 22125AJ  23249.31045786  .00003979  00000-0  26792-3 0  9995,2 53996  53.2186   3.2558 0001231  95.1506 264.9627 15.08842143 51340,6917.874,95.437,540.59,538.887,0.0
53996.0,STARLINK-5131,PAYLOAD,2023-09-07 00:56:18,15.08842353,0.0001655,53.2182,359.9823,93.9247,266.1935,0.0001392,1.928e-05,0.0,0 STARLINK-5131,1 53996U 22125AJ  23250.03910139  .00001928  00000-0  13920-3 0  9990,2 53996  53.2182 359.9823 0001655  93.9247 266.1935 15.08842353 51451,6917.873,95.437,540.883,538.593,0.0
53996.0,STARLINK-5131,PAYLOAD,2023-09-07 08:53:14,15.08833705,0.0001404,53.2178,358.4992,84.4836,275.6316,-1.3491e-05,-5.03e-06,0.0,0 STARLINK-5131,1 53996U 22125AJ  23250.37030594 -.00000503  00000-0 -13491-4 0  9999,2 53996  53.2178 358.4992 0001404  84.4836 275.6316 15.08833705 51503,6917.9,95.438,540.736,538.793,0.0
53996.0,STARLINK-5131,PAYLOAD,2023-09-07 16:50:09,15.08842123,0.0001305,53.2179,357.0111,84.8798,275.2343,6.2726e-05,7.11e-06,0.0,0 STARLINK-5131,1 53996U 22125AJ  23250.70150073  .00000711  00000-0  62726-4 0  9995,2 53996  53.2179 357.0111 0001305  84.8798 275.2343 15.08842123 51480,6917.874,95.437,540.642,538.836,0.0
53996.0,STARLINK-5131,PAYLOAD,2023-09-08 10:19:23,15.08860122,0.0002061,53.2177,353.74,86.3808,273.742,-0.00016176,-2.863e-05,0.0,0 STARLINK-5131,1 53996U 22125AJ  23251.43013245 -.00002863  00000-0 -16176-3 0  9994,2 53996  53.2177 353.7400 0002061  86.3808 273.7420 15.08860122 51669,6917.819,95.436,541.11,538.258,0.0
53996.0,STARLINK-5131,PAYLOAD,2023-09-08 13:30:09,15.08866392,0.0001305,53.218,353.1459,91.9186,268.1955,-0.00017013,-2.997e-05,0.0,0 STARLINK-5131,1 53996U 22125AJ  23251.56260739 -.00002997  00000-0 -17013-3 0  9999,2 53996  53.2180 353.1459 0001305  91.9186 268.1955 15.08866392 51613,6917.8,95.436,540.567,538.762,0.0
53996.0,STARLINK-5131,PAYLOAD,2023-09-08 16:40:55,15.08867474,0.0001434,53.218,352.5508,98.1241,261.9914,-3.6533e-05,-8.7e-06,0.0,0 STARLINK-5131,1 53996U 22125AJ  23251.69508602 -.00000870  00000-0 -36533-4 0  9994,2 53996  53.2180 352.5508 0001434  98.1241 261.9914 15.08867474 51635,6917.796,95.436,540.653,538.669,0.0
53996.0,STARLINK-5131,PAYLOAD,2023-09-09 10:10:11,15.08840036,0.000138,53.2176,349.2787,107.9409,252.1734,-4.9736e-06,-3.67e-06,0.0,0 STARLINK-5131,1 53996U 22125AJ  23252.42374000 -.00000367  00000-0 -49736-5 0  9990,2 53996  53.2176 349.2787 0001380 107.9409 252.1734 15.08840036 51814,6917.88,95.438,540.7,538.791,0.0
